OBJECT_NAME,OBJECT_ID,EPOCH,MEAN_MOTION,ECCENTRICITY,INCLINATION,RA_OF_ASC_NODE,ARG_OF_PERICENTER,MEAN_ANOMALY,EPHEMERIS_TYPE,CLASSIFICATION_TYPE,NORAD_CAT_ID,ELEMENT_SET_NO,REV_AT_EPOCH,BSTAR,MEAN_MOTION_DOT,MEAN_MOTION_DDOT
STARLINK-4748,2022-114F,2026-07-11T18:00:02.000160,15.18213770,.00004058,53.1608,61.5875,60.2441,35.9367,0,U,53823,999,567,.3253058E-3,.6426E-4,0
STARLINK-4757,2022-114G,2026-07-11T04:27:19.979424,15.08834788,.0001408,53.1595,108.8925,92.4853,267.6300,0,U,53824,999,21139,.38901527E-4,.331E-5,0
STARLINK-4751,2022-114H,2026-07-11T04:32:45.684960,15.08830765,.00011876,53.1599,109.6099,89.2712,270.8416,0,U,53825,999,21147,-.4719666E-5,-.363E-5,0
STARLINK-4756,2022-114J,2026-07-11T04:06:13.917024,15.08832873,.00013132,53.1610,109.4997,87.7140,272.4002,0,U,53826,999,21147,.17222548E-4,-.14E-6,0
STARLINK-4764,2022-114K,2026-07-10T04:31:21.871776,15.08839279,.00011224,53.1591,114.0304,94.2159,265.8960,0,U,53827,999,21132,.97578195E-4,.1265E-4,0
STARLINK-4760,2022-114L,2026-07-08T12:25:31.220544,15.08825136,.00012644,53.1597,121.3837,98.3527,261.7607,0,U,53828,999,21107,-.15830739E-4,-.54E-5,0
STARLINK-4759,2022-114M,2026-07-09T04:35:16.252512,15.08834500,.00012516,53.1594,118.4739,94.2928,265.8207,0,U,53829,999,21117,.46109904E-4,.446E-5,0
STARLINK-4761,2022-114N,2026-07-10T05:34:54.911136,15.08833620,.00013065,53.1600,113.5989,89.1172,270.9969,0,U,53830,999,21133,-.32853417E-4,-.811E-5,0
STARLINK-4649,2022-114P,2026-07-08T04:39:11.221632,15.08835209,.00013107,53.1591,122.9179,91.7636,268.3506,0,U,53831,999,21102,.8994705E-5,-.145E-5,0
STARLINK-4747,2022-114Q,2026-07-11T03:39:42.624288,15.08833170,.00013603,53.1598,109.3841,92.4668,267.6479,0,U,53832,999,21147,.32544796E-4,.23E-5,0
STARLINK-4771,2022-114R,2026-07-10T04:06:13.768416,15.08837812,.00014832,53.1604,113.9226,99.5142,260.6017,0,U,53833,999,21132,.96271012E-4,.1244E-4,0
STARLINK-4737,2022-114S,2026-07-11T03:29:05.986752,15.08839777,.00011589,53.1595,109.3391,87.1704,272.9420,0,U,53834,999,21147,.95728806E-4,.1236E-4,0
STARLINK-4783,2022-114T,2026-07-11T18:03:29.134656,15.08839108,.00014361,53.1594,106.7269,99.0430,261.0724,0,U,53835,999,21156,-.18405908E-4,-.581E-5,0
STARLINK-4778,2022-114U,2026-07-11T08:31:23.085984,15.49057493,.00012735,53.2170,85.4073,75.5926,284.5225,0,U,53836,999,21183,-.9531533E-3,-.52635E-3,0
STARLINK-4776,2022-114V,2026-07-11T03:34:24.128832,15.08839683,.00013509,53.1612,109.3610,95.9947,264.1199,0,U,53837,999,21147,-.12861012E-4,-.493E-5,0
STARLINK-4773,2022-114W,2026-07-10T04:43:19.807392,15.08832826,.00014018,53.1618,104.1060,87.0745,273.0407,0,U,53838,999,21146,.46594128E-4,.453E-5,0
STARLINK-4784,2022-114X,2026-07-10T03:18:31.936896,15.08837200,.00012528,53.1604,104.4435,94.0085,266.1050,0,U,53839,999,21145,.77268551E-4,.942E-5,0
STARLINK-4766,2022-114Y,2026-07-11T04:08:43.795104,15.31697441,.00010823,53.1614,96.0220,71.6630,288.4489,0,U,53840,999,21166,-.4466843E-5,-.504E-5,0
STARLINK-4750,2022-114Z,2026-07-11T04:28:47.381664,15.08834939,.0001317,53.1610,99.6124,84.0809,276.0333,0,U,53841,999,21161,-.3390259E-4,-.827E-5,0
STARLINK-4754,2022-114AA,2026-07-11T08:53:42.850176,15.08832364,.00013993,53.1602,98.6229,109.0410,251.0733,0,U,53842,999,21164,.13145966E-4,-.79E-6,0
STARLINK-4769,2022-114AB,2026-07-11T04:23:29.681952,15.08826604,.00015736,53.1606,99.5867,67.5929,292.5229,0,U,53843,999,21161,-.18596982E-4,-.584E-5,0
STARLINK-4745,2022-114AC,2026-07-10T21:57:37.747872,15.08029628,.0001323,53.1610,100.7829,85.5955,274.5187,0,U,53844,999,21157,.23641434E-4,.82E-6,0
STARLINK-4753,2022-114AD,2026-07-10T23:26:42.842400,15.08842375,.00014981,53.1603,100.4536,72.8785,287.2370,0,U,53845,999,21158,.10569244E-3,.1395E-4,0
STARLINK-4746,2022-114AE,2026-07-11T03:46:19.560576,15.08847249,.00013341,53.1598,99.4273,99.2644,260.8498,0,U,53846,999,21161,.13455857E-3,.1855E-4,0
STARLINK-4777,2022-114AF,2026-07-11T04:02:15.224928,15.08832664,.00013873,53.1604,99.4945,97.1897,262.9252,0,U,53847,999,21161,-.31486389E-4,-.789E-5,0
STARLINK-4780,2022-114AG,2026-07-10T18:03:24.611616,15.08841823,.00010601,53.1608,101.1710,89.5180,270.5933,0,U,53848,999,21155,.88252289E-4,.1117E-4,0
STARLINK-4770,2022-114AH,2026-07-10T23:33:33.931008,15.31699659,.00014106,53.1610,96.9620,87.1398,272.9765,0,U,53849,999,21163,.33260605E-4,.667E-5,0
STARLINK-4767,2022-114AJ,2026-07-09T03:38:15.421632,15.08814450,.00020099,53.1607,108.2454,93.2876,266.8346,0,U,53850,999,21131,.34923771E-4,.267E-5,0
STARLINK-4755,2022-114AK,2026-07-08T23:13:19.421760,15.08838626,.00011312,53.1585,109.2312,83.6343,276.4777,0,U,53851,999,21128,.10360752E-3,.1361E-4,0
STARLINK-4797,2022-114AL,2026-07-08T21:57:09.875232,15.08838231,.00013733,53.1603,104.6247,89.6958,270.4191,0,U,53852,999,21134,.94018612E-4,.1209E-4,0
